{
  "type": "FeatureCollection",
  "features": [
    {
      "type": "Feature",
      "properties": {
        "norad_id": 34924,
        "name": "COSMOS 2251 DEB",
        "group": "cosmos-2251-debris",
        "lat": 6.086012991975964,
        "lon": -103.04947990155542,
        "alt_km": 657.3421629695604,
        "timestamp": "2025-12-18T08:58:43.810277+00:00",
        "meta_object_name": "COSMOS 2251 DEB",
        "meta_object_id": "1993-036ADV",
        "meta_epoch": "2025-12-17T16:25:44.796864",
        "meta_mean_motion": 14.60076982,
        "meta_eccentricity": 0.00539411,
        "meta_inclination": 74.0412,
        "meta_ra_of_asc_node": 80.014,
        "meta_arg_of_pericenter": 163.4775,
        "meta_mean_anomaly": 346.857,
        "meta_ephemeris_type": 0,
        "meta_classification_type": "U",
        "meta_norad_cat_id": 34924,
        "meta_element_set_no": 999,
        "meta_rev_at_epoch": 87795,
        "meta_bstar": 0.00070261793,
        "meta_mean_motion_dot": 3.418e-05,
        "meta_mean_motion_ddot": 0,
        "tle_line1": "1 34924U 93036ADV 25351.68454626  .00003418  00000+0  70262-3 0  9995",
        "tle_line2": "2 34924  74.0412  80.0140 0053941 163.4775 346.8570 14.60076982877952"
      },
      "geometry": {
        "type": "Point",
        "coordinates": [
          -103.04947990155542,
          6.086012991975964
        ]
      }
    },
    {
      "type": "Feature",
      "properties": {
        "norad_id": 34944,
        "name": "COSMOS 2251 DEB",
        "group": "cosmos-2251-debris",
        "lat": 64.11817455014395,
        "lon": -101.17267880877237,
        "alt_km": 679.610178225179,
        "timestamp": "2025-12-18T08:58:43.810287+00:00",
        "meta_object_name": "COSMOS 2251 DEB",
        "meta_object_id": "1993-036ADX",
        "meta_epoch": "2025-12-17T02:06:11.847168",
        "meta_mean_motion": 14.14195665,
        "meta_eccentricity": 0.02198727,
        "meta_inclination": 73.7495,
        "meta_ra_of_asc_node": 224.195,
        "meta_arg_of_pericenter": 70.8954,
        "meta_mean_anomaly": 291.5851,
        "meta_ephemeris_type": 0,
        "meta_classification_type": "U",
        "meta_norad_cat_id": 34944,
        "meta_element_set_no": 999,
        "meta_rev_at_epoch": 64144,
        "meta_bstar": 0.00030334686,
        "meta_mean_motion_dot": 7.03e-06,
        "meta_mean_motion_ddot": 0,
        "tle_line1": "1 34944U 93036ADX 25351.08763712  .00000703  00000+0  30335-3 0  9991",
        "tle_line2": "2 34944  73.7495 224.1950 0219872  70.8954 291.5851 14.14195665641448"
      },
      "geometry": {
        "type": "Point",
        "coordinates": [
          -101.17267880877237,
          64.11817455014395
        ]
      }
    },
    {
      "type": "Feature",
      "properties": {
        "norad_id": 34946,
        "name": "COSMOS 2251 DEB",
        "group": "cosmos-2251-debris",
        "lat": 53.80161812370431,
        "lon": -5.635712563766423,
        "alt_km": 658.8987612374995,
        "timestamp": "2025-12-18T08:58:43.810297+00:00",
        "meta_object_name": "COSMOS 2251 DEB",
        "meta_object_id": "1993-036ADZ",
        "meta_epoch": "2025-12-17T16:17:48.615360",
        "meta_mean_motion": 14.62022372,
        "meta_eccentricity": 0.00485788,
        "meta_inclination": 74.0231,
        "meta_ra_of_asc_node": 332.6492,
        "meta_arg_of_pericenter": 108.2912,
        "meta_mean_anomaly": 252.3549,
        "meta_ephemeris_type": 0,
        "meta_classification_type": "U",
        "meta_norad_cat_id": 34946,
        "meta_element_set_no": 999,
        "meta_rev_at_epoch": 88281,
        "meta_bstar": 0.00043805305,
        "meta_mean_motion_dot": 2.204e-05,
        "meta_mean_motion_ddot": 0,
        "tle_line1": "1 34946U 93036ADZ 25351.67903490  .00002204  00000+0  43805-3 0  9991",
        "tle_line2": "2 34946  74.0231 332.6492 0048578 108.2912 252.3549 14.62022372882815"
      },
      "geometry": {
        "type": "Point",
        "coordinates": [
          -5.635712563766423,
          53.80161812370431
        ]
      }
    },
    {
      "type": "Feature",
      "properties": {
        "norad_id": 34949,
        "name": "COSMOS 2251 DEB",
        "group": "cosmos-2251-debris",
        "lat": -17.412939730440428,
        "lon": -76.19152629526327,
        "alt_km": 612.4890964529759,
        "timestamp": "2025-12-18T08:58:43.810307+00:00",
        "meta_object_name": "COSMOS 2251 DEB",
        "meta_object_id": "1993-036AEC",
        "meta_epoch": "2025-12-16T00:41:42.487008",
        "meta_mean_motion": 14.74023339,
        "meta_eccentricity": 0.00802648,
        "meta_inclination": 74.0185,
        "meta_ra_of_asc_node": 103.231,
        "meta_arg_of_pericenter": 247.8557,
        "meta_mean_anomaly": 111.4083,
        "meta_ephemeris_type": 0,
        "meta_classification_type": "U",
        "meta_norad_cat_id": 34949,
        "meta_element_set_no": 999,
        "meta_rev_at_epoch": 88410,
        "meta_bstar": 0.00040106171,
        "meta_mean_motion_dot": 2.742e-05,
        "meta_mean_motion_ddot": 0,
        "tle_line1": "1 34949U 93036AEC 25350.02896397  .00002742  00000+0  40106-3 0  9997",
        "tle_line2": "2 34949  74.0185 103.2310 0080264 247.8557 111.4083 14.74023339884109"
      },
      "geometry": {
        "type": "Point",
        "coordinates": [
          -76.19152629526327,
          -17.412939730440428
        ]
      }
    },
    {
      "type": "Feature",
      "properties": {
        "norad_id": 34953,
        "name": "COSMOS 2251 DEB",
        "group": "cosmos-2251-debris",
        "lat": 66.45701974819454,
        "lon": 57.50369488181577,
        "alt_km": 640.1347510256564,
        "timestamp": "2025-12-18T08:58:43.810317+00:00",
        "meta_object_name": "COSMOS 2251 DEB",
        "meta_object_id": "1993-036AEG",
        "meta_epoch": "2025-12-17T08:12:02.475648",
        "meta_mean_motion": 14.68997686,
        "meta_eccentricity": 0.00582899,
        "meta_inclination": 74.0933,
        "meta_ra_of_asc_node": 18.6118,
        "meta_arg_of_pericenter": 9.3224,
        "meta_mean_anomaly": 4.9291,
        "meta_ephemeris_type": 0,
        "meta_classification_type": "U",
        "meta_norad_cat_id": 34953,
        "meta_element_set_no": 999,
        "meta_rev_at_epoch": 88196,
        "meta_bstar": 0.00057825392,
        "meta_mean_motion_dot": 3.448e-05,
        "meta_mean_motion_ddot": 0,
        "tle_line1": "1 34953U 93036AEG 25351.34169532  .00003448  00000+0  57825-3 0  9992",
        "tle_line2": "2 34953  74.0933  18.6118 0058289   9.3224   4.9291 14.68997686881960"
      },
      "geometry": {
        "type": "Point",
        "coordinates": [
          57.50369488181577,
          66.45701974819454
        ]
      }
    },
    {
      "type": "Feature",
      "properties": {
        "norad_id": 34955,
        "name": "COSMOS 2251 DEB",
        "group": "cosmos-2251-debris",
        "lat": 49.90346496490156,
        "lon": 35.174120181990276,
        "alt_km": 613.4596503169378,
        "timestamp": "2025-12-18T08:58:43.810327+00:00",
        "meta_object_name": "COSMOS 2251 DEB",
        "meta_object_id": "1993-036AEJ",
        "meta_epoch": "2025-12-11T10:00:38.398176",
        "meta_mean_motion": 15.00495775,
        "meta_eccentricity": 0.00779991,
        "meta_inclination": 74.0375,
        "meta_ra_of_asc_node": 249.1952,
        "meta_arg_of_pericenter": 319.1032,
        "meta_mean_anomaly": 40.4318,
        "meta_ephemeris_type": 0,
        "meta_classification_type": "U",
        "meta_norad_cat_id": 34955,
        "meta_element_set_no": 999,
        "meta_rev_at_epoch": 90014,
        "meta_bstar": 0.0014966224,
        "meta_mean_motion_dot": 0.00020131,
        "meta_mean_motion_ddot": 0,
        "tle_line1": "1 34955U 93036AEJ 25345.41711109  .00020131  00000+0  14966-2 0  9994",
        "tle_line2": "2 34955  74.0375 249.1952 0077999 319.1032  40.4318 15.00495775900143"
      },
      "geometry": {
        "type": "Point",
        "coordinates": [
          35.174120181990276,
          49.90346496490156
        ]
      }
    },
    {
      "type": "Feature",
      "properties": {
        "norad_id": 34962,
        "name": "COSMOS 2251 DEB",
        "group": "cosmos-2251-debris",
        "lat": -71.31231730335526,
        "lon": 60.69348183744157,
        "alt_km": 732.9919995677719,
        "timestamp": "2025-12-18T08:58:43.810337+00:00",
        "meta_object_name": "COSMOS 2251 DEB",
        "meta_object_id": "1993-036AER",
        "meta_epoch": "2025-12-16T14:16:58.944288",
        "meta_mean_motion": 14.4652884,
        "meta_eccentricity": 0.0018797,
        "meta_inclination": 74.029,
        "meta_ra_of_asc_node": 186.1625,
        "meta_arg_of_pericenter": 299.0905,
        "meta_mean_anomaly": 60.8371,
        "meta_ephemeris_type": 0,
        "meta_classification_type": "U",
        "meta_norad_cat_id": 34962,
        "meta_element_set_no": 999,
        "meta_rev_at_epoch": 87634,
        "meta_bstar": 0.00032902172,
        "meta_mean_motion_dot": 1.16e-05,
        "meta_mean_motion_ddot": 0,
        "tle_line1": "1 34962U 93036AER 25350.59512667  .00001160  00000+0  32902-3 0  9997",
        "tle_line2": "2 34962  74.0290 186.1625 0018797 299.0905  60.8371 14.46528840876348"
      },
      "geometry": {
        "type": "Point",
        "coordinates": [
          60.69348183744157,
          -71.31231730335526
        ]
      }
    }
  ]
}